ONEWEB-0165             
1 48233U 21031Z   26074.19573965  .00000724  00000+0  19184-2 0  9998
2 48233  87.8977 308.4667 0002055  82.0572 278.0791 13.14497133236010
ONEWEB-0199             
1 48234U 21031AA  26074.17983957  .00001983  00000+0  53111-2 0  9999
2 48234  87.8977 308.4518 0001583  84.4999 275.6311 13.14519041235912
ONEWEB-0203             
1 48235U 21031AB  26074.17034670  .00000343  00000+0  88939-3 0  9995
2 48235  87.8985 308.4541 0001704  87.2900 272.8425 13.14504069235926
ONEWEB-0197             
1 48236U 21031AC  26074.14483963 -.00000067  00000+0 -21475-3 0  9993
2 48236  87.8977 308.4570 0001441  73.9722 286.1566 13.14503334235830
ONEWEB-0194             
1 48237U 21031AD  26074.20048385 -.00000047  00000+0 -16035-3 0  9990
2 48237  87.8977 308.4638 0001608  89.8718 270.2596 13.14503322236017
ONEWEB-0193             
1 48238U 21031AE  26074.14021729 -.00000150  00000+0 -43956-3 0  9994
2 48238  87.8978 308.4672 0001536  97.7559 262.3745 13.14503255235953
ONEWEB-0191             
1 48239U 21031AF  26074.15132035  .00000100  00000+0  23655-3 0  9996
2 48239  87.8980 308.4607 0001602  83.5987 276.5325 13.14502785235810
ONEWEB-0195             
1 48240U 21031AG  26074.20444527 -.00000153  00000+0 -44609-3 0  9998
2 48240  87.8977 308.4468 0002076  80.2673 279.8691 13.14503043235804
ONEWEB-0201             
1 48241U 21031AH  26074.19267118  .00000042  00000+0  79648-4 0  9993
2 48241  87.8967 308.4774 0001689  68.0334 292.0975 13.14500867236030
ONEWEB-0207             
1 48242U 21031AJ  26074.17273237  .00000225  00000+0  57237-3 0  9993
2 48242  87.8977 308.4538 0001609  72.2586 287.8719 13.14504667235947
ONEWEB-0208             
1 48243U 21031AK  26074.15448834  .00000066  00000+0  14249-3 0  9998
2 48243  87.8979 308.4698 0001964  81.6610 278.4742 13.14503727235952
ONEWEB-0200             
1 48244U 21031AL  26074.19414034  .00000049  00000+0  98267-4 0  9992
2 48244  87.8975 308.4508 0001756  79.2439 280.8888 13.14502588235884
ONEWEB-0217             
1 48245U 21031AM  26074.20999604 -.00000099  00000+0 -30211-3 0  9997
2 48245  87.8979 308.4472 0002016  80.7599 279.3758 13.14503517235830
ONEWEB-0211             
1 48767U 21045A   26074.30606909  .00000109  00000+0  25383-3 0  9999
2 48767  87.8934 277.8455 0002116  93.4888 266.6485 13.16144045232093
ONEWEB-0223             
1 48768U 21045B   26074.26247002  .00000078  00000+0  17202-3 0  9996
2 48768  87.8941 277.9375 0002023  98.6311 261.5049 13.15548304232050
ONEWEB-0230             
1 48769U 21045C   26074.08183543  .00000241  00000+0  60694-3 0  9991
2 48769  87.8929 277.9958 0001523  90.1628 269.9676 13.15547825232297
