[{"OBJECT_NAME":"ONEWEB-0165","OBJECT_ID":"2021-031Z","EPOCH":"2026-03-15T04:41:51.905760","MEAN_MOTION":13.14497133,"ECCENTRICITY":0.00020554,"INCLINATION":87.8977,"RA_OF_ASC_NODE":308.4667,"ARG_OF_PERICENTER":82.0572,"MEAN_ANOMALY":278.0791,"EPHEMERIS_TYPE":0,"CLASSIFICATION_TYPE":"U","NORAD_CAT_ID":48233,"ELEMENT_SET_NO":999,"REV_AT_EPOCH":23601,"BSTAR":0.0019184312,"MEAN_MOTION_DOT":7.24e-6,"MEAN_MOTION_DDOT":0},{"OBJECT_NAME":"ONEWEB-0199","OBJECT_ID":"2021-031AA","EPOCH":"2026-03-15T04:18:58.138848","MEAN_MOTION":13.14519041,"ECCENTRICITY":0.00015834,"INCLINATION":87.8977,"RA_OF_ASC_NODE":308.4518,"ARG_OF_PERICENTER":84.4999,"MEAN_ANOMALY":275.6311,"EPHEMERIS_TYPE":0,"CLASSIFICATION_TYPE":"U","NORAD_CAT_ID":48234,"ELEMENT_SET_NO":999,"REV_AT_EPOCH":23591,"BSTAR":0.0053110636,"MEAN_MOTION_DOT":1.983e-5,"MEAN_MOTION_DDOT":0},{"OBJECT_NAME":"ONEWEB-0203","OBJECT_ID":"2021-031AB","EPOCH":"2026-03-15T04:05:17.954880","MEAN_MOTION":13.14504069,"ECCENTRICITY":0.00017049,"INCLINATION":87.8985,"RA_OF_ASC_NODE":308.4541,"ARG_OF_PERICENTER":87.29,"MEAN_ANOMALY":272.8425,"EPHEMERIS_TYPE":0,"CLASSIFICATION_TYPE":"U","NORAD_CAT_ID":48235,"ELEMENT_SET_NO":999,"REV_AT_EPOCH":23592,"BSTAR":0.00088938833,"MEAN_MOTION_DOT":3.43e-6,"MEAN_MOTION_DDOT":0},{"OBJECT_NAME":"ONEWEB-0197","OBJECT_ID":"2021-031AC","EPOCH":"2026-03-15T03:28:34.144032","MEAN_MOTION":13.14503334,"ECCENTRICITY":0.00014411,"INCLINATION":87.8977,"RA_OF_ASC_NODE":308.457,"ARG_OF_PERICENTER":73.9722,"MEAN_ANOMALY":286.1566,"EPHEMERIS_TYPE":0,"CLASSIFICATION_TYPE":"U","NORAD_CAT_ID":48236,"ELEMENT_SET_NO":999,"REV_AT_EPOCH":23583,"BSTAR":-0.00021474611,"MEAN_MOTION_DOT":-6.7e-7,"MEAN_MOTION_DDOT":0},{"OBJECT_NAME":"ONEWEB-0194","OBJECT_ID":"2021-031AD","EPOCH":"2026-03-15T04:48:41.804640","MEAN_MOTION":13.14503322,"ECCENTRICITY":0.00016088,"INCLINATION":87.8977,"RA_OF_ASC_NODE":308.4638,"ARG_OF_PERICENTER":89.8718,"MEAN_ANOMALY":270.2596,"EPHEMERIS_TYPE":0,"CLASSIFICATION_TYPE":"U","NORAD_CAT_ID":48237,"ELEMENT_SET_NO":999,"REV_AT_EPOCH":23601,"BSTAR":-0.00016034983,"MEAN_MOTION_DOT":-4.7e-7,"MEAN_MOTION_DDOT":0},{"OBJECT_NAME":"ONEWEB-0193","OBJECT_ID":"2021-031AE","EPOCH":"2026-03-15T03:21:54.773856","MEAN_MOTION":13.14503255,"ECCENTRICITY":0.00015362,"INCLINATION":87.8978,"RA_OF_ASC_NODE":308.4672,"ARG_OF_PERICENTER":97.7559,"MEAN_ANOMALY":262.3745,"EPHEMERIS_TYPE":0,"CLASSIFICATION_TYPE":"U","NORAD_CAT_ID":48238,"ELEMENT_SET_NO":999,"REV_AT_EPOCH":23595,"BSTAR":-0.00043955978,"MEAN_MOTION_DOT":-1.5e-6,"MEAN_MOTION_DDOT":0},{"OBJECT_NAME":"ONEWEB-0191","OBJECT_ID":"2021-031AF","EPOCH":"2026-03-15T03:37:54.078240","MEAN_MOTION":13.14502785,"ECCENTRICITY":0.00016022,"INCLINATION":87.898,"RA_OF_ASC_NODE":308.4607,"ARG_OF_PERICENTER":83.5987,"MEAN_ANOMALY":276.5325,"EPHEMERIS_TYPE":0,"CLASSIFICATION_TYPE":"U","NORAD_CAT_ID":48239,"ELEMENT_SET_NO":999,"REV_AT_EPOCH":23581,"BSTAR":0.00023655076,"MEAN_MOTION_DOT":1.0e-6,"MEAN_MOTION_DDOT":0},{"OBJECT_NAME":"ONEWEB-0195","OBJECT_ID":"2021-031AG","EPOCH":"2026-03-15T04:54:24.071328","MEAN_MOTION":13.14503043,"ECCENTRICITY":0.00020762,"INCLINATION":87.8977,"RA_OF_ASC_NODE":308.4468,"ARG_OF_PERICENTER":80.2673,"MEAN_ANOMALY":279.8691,"EPHEMERIS_TYPE":0,"CLASSIFICATION_TYPE":"U","NORAD_CAT_ID":48240,"ELEMENT_SET_NO":999,"REV_AT_EPOCH":23580,"BSTAR":-0.00044609344,"MEAN_MOTION_DOT":-1.53e-6,"MEAN_MOTION_DDOT":0},{"OBJECT_NAME":"ONEWEB-0201","OBJECT_ID":"2021-031AH","EPOCH":"2026-03-15T04:37:26.789952","MEAN_MOTION":13.14500867,"ECCENTRICITY":0.00016897,"INCLINATION":87.8967,"RA_OF_ASC_NODE":308.4774,"ARG_OF_PERICENTER":68.0334,"MEAN_ANOMALY":292.0975,"EPHEMERIS_TYPE":0,"CLASSIFICATION_TYPE":"U","NORAD_CAT_ID":48241,"ELEMENT_SET_NO":999,"REV_AT_EPOCH":23603,"BSTAR":7.9647982e-5,"MEAN_MOTION_DOT":4.2e-7,"MEAN_MOTION_DDOT":0},{"OBJECT_NAME":"ONEWEB-0207","OBJECT_ID":"2021-031AJ","EPOCH":"2026-03-15T04:08:44.076768","MEAN_MOTION":13.14504667,"ECCENTRICITY":0.00016094,"INCLINATION":87.8977,"RA_OF_ASC_NODE":308.4538,"ARG_OF_PERICENTER":72.2586,"MEAN_ANOMALY":287.8719,"EPHEMERIS_TYPE":0,"CLASSIFICATION_TYPE":"U","NORAD_CAT_ID":48242,"ELEMENT_SET_NO":999,"REV_AT_EPOCH":23594,"BSTAR":0.00057236932,"MEAN_MOTION_DOT":2.25e-6,"MEAN_MOTION_DDOT":0},{"OBJECT_NAME":"ONEWEB-0208","OBJECT_ID":"2021-031AK","EPOCH":"2026-03-15T03:42:27.792576","MEAN_MOTION":13.14503727,"ECCENTRICITY":0.00019649,"INCLINATION":87.8979,"RA_OF_ASC_NODE":308.4698,"ARG_OF_PERICENTER":81.661,"MEAN_ANOMALY":278.4742,"EPHEMERIS_TYPE":0,"CLASSIFICATION_TYPE":"U","NORAD_CAT_ID":48243,"ELEMENT_SET_NO":999,"REV_AT_EPOCH":23595,"BSTAR":0.00014248741,"MEAN_MOTION_DOT":6.6e-7,"MEAN_MOTION_DDOT":0},{"OBJECT_NAME":"ONEWEB-0200","OBJECT_ID":"2021-031AL","EPOCH":"2026-03-15T04:39:33.725376","MEAN_MOTION":13.14502588,"ECCENTRICITY":0.0001756,"INCLINATION":87.8975,"RA_OF_ASC_NODE":308.4508,"ARG_OF_PERICENTER":79.2439,"MEAN_ANOMALY":280.8888,"EPHEMERIS_TYPE":0,"CLASSIFICATION_TYPE":"U","NORAD_CAT_ID":48244,"ELEMENT_SET_NO":999,"REV_AT_EPOCH":23588,"BSTAR":9.8266979e-5,"MEAN_MOTION_DOT":4.9e-7,"MEAN_MOTION_DDOT":0},{"OBJECT_NAME":"ONEWEB-0217","OBJECT_ID":"2021-031AM","EPOCH":"2026-03-15T05:02:23.657856","MEAN_MOTION":13.14503517,"ECCENTRICITY":0.00020167,"INCLINATION":87.8979,"RA_OF_ASC_NODE":308.4472,"ARG_OF_PERICENTER":80.7599,"MEAN_ANOMALY":279.3758,"EPHEMERIS_TYPE":0,"CLASSIFICATION_TYPE":"U","NORAD_CAT_ID":48245,"ELEMENT_SET_NO":999,"REV_AT_EPOCH":23583,"BSTAR":-0.00030211312,"MEAN_MOTION_DOT":-9.9e-7,"MEAN_MOTION_DDOT":0},{"OBJECT_NAME":"ONEWEB-0211","OBJECT_ID":"2021-045A","EPOCH":"2026-03-15T07:20:44.369376","MEAN_MOTION":13.16144045,"ECCENTRICITY":0.00021168,"INCLINATION":87.8934,"RA_OF_ASC_NODE":277.8455,"ARG_OF_PERICENTER":93.4888,"MEAN_ANOMALY":266.6485,"EPHEMERIS_TYPE":0,"CLASSIFICATION_TYPE":"U","NORAD_CAT_ID":48767,"ELEMENT_SET_NO":999,"REV_AT_EPOCH":23209,"BSTAR":0.00025383303,"MEAN_MOTION_DOT":1.09e-6,"MEAN_MOTION_DDOT":0},{"OBJECT_NAME":"ONEWEB-0223","OBJECT_ID":"2021-045B","EPOCH":"2026-03-15T06:17:57.409728","MEAN_MOTION":13.15548304,"ECCENTRICITY":0.00020232,"INCLINATION":87.8941,"RA_OF_ASC_NODE":277.9375,"ARG_OF_PERICENTER":98.6311,"MEAN_ANOMALY":261.5049,"EPHEMERIS_TYPE":0,"CLASSIFICATION_TYPE":"U","NORAD_CAT_ID":48768,"ELEMENT_SET_NO":999,"REV_AT_EPOCH":23205,"BSTAR":0.00017202415,"MEAN_MOTION_DOT":7.8e-7,"MEAN_MOTION_DDOT":0},{"OBJECT_NAME":"ONEWEB-0230","OBJECT_ID":"2021-045C","EPOCH":"2026-03-15T01:57:50.581152","MEAN_MOTION":13.15547825,"ECCENTRICITY":0.00015232,"INCLINATION":87.8929,"RA_OF_ASC_NODE":277.9958,"ARG_OF_PERICENTER":90.1628,"MEAN_ANOMALY":269.9676,"EPHEMERIS_TYPE":0,"CLASSIFICATION_TYPE":"U","NORAD_CAT_ID":48769,"ELEMENT_SET_NO":999,"REV_AT_EPOCH":23229,"BSTAR":0.00060694456,"MEAN_MOTION_DOT":2.41e-6,"MEAN_MOTION_DDOT":0}]
